{
  "norad_id": 59079,
  "name": "STARLINK-31257",
  "history": [
    {
      "epoch": "2026-03-28T17:16:55.275744",
      "apogee_km": 483.84354855282527,
      "perigee_km": 482.2262331147167,
      "latitude_deg": -20.33317808856436,
      "longitude_deg": 157.02808415982872,
      "semi_major_axis_km": 6861.171890833771,
      "eccentricity": 0.00011786,
      "inclination_deg": 43.0019,
      "raan_deg": 203.0869,
      "arg_perigee_deg": 280.4959,
      "mean_anomaly_deg": 79.576,
      "mean_motion_rev_day": 15.27584744
    }
  ]
}